ELECTRON R/B            
1 67229U 25307B   26015.32977683  .00967413  78012-5  15068-2 0  9997
2 67229  41.9917 330.6376 0136084  61.6305 299.8197 15.87959470  3935
ELECTRON KICK STAGE R/B 
1 67230U 25307C   26015.54059944  .06272261  83246-5  12195-2 0  9993
2 67230  41.9953 326.9461 0041833 101.3020 259.2557 16.27861166  2391
SPACEMOBILE-006         
1 67232U 25309A   26015.63923834 -.00000346  00000+0 -12034-5 0  9990
2 67232  52.9987 309.9129 0011996  31.1147 329.0554 15.17742258  3427
LVM3 R/B                
1 67233U 25309B   26015.61256250  .00004818  00000+0  23752-3 0  9993
2 67233  52.9288 309.5061 0011791  55.7932 304.4177 15.19682475  3424
2025-310A               
1 67234U 25310A   26014.72283539  .00000009  00000+0  86937-5 0  9991
2 67234  97.9664  24.2349 0001912 179.1290 180.9923 14.75705364  2995
SL-4 R/B                
1 67235U 25310B   26015.64665152  .00265867  24277-5  52542-3 0  9995
2 67235  97.9619  27.5118 0265300   0.3523 359.7870 15.59723108  3271
HULIANWANG DIGUI-128    
1 67236U 25311A   26015.63446950 -.00000045  00000+0  81614-4 0  9990
2 67236  50.0101 313.4332 0006567 346.4900  13.5822 13.90210717  2882
HULIANWANG DIGUI-129    
1 67237U 25311B   26015.63576530 -.00000051  00000+0  76372-4 0  9991
2 67237  50.0090 313.4372 0007815 348.0369  12.0343 13.90166973  2884
HULIANWANG DIGUI-130    
1 67238U 25311C   26015.64239403 -.00000042  00000+0  84076-4 0  9998
2 67238  50.0071 313.4663 0007766 325.4977  34.5417 13.90218602  2884
HULIANWANG DIGUI-131    
1 67239U 25311D   26015.64550628 -.00000046  00000+0  80418-4 0  9994
2 67239  50.0066 313.4811 0009377 332.8334  27.2073 13.90205630  2887
HULIANWANG DIGUI-132    
1 67240U 25311E   26015.63931270 -.00000053  00000+0  74510-4 0  9995
2 67240  50.0078 313.4522 0008465 339.4838  20.5719 13.90231481  2886
HULIANWANG DIGUI-133    
1 67241U 25311F   26015.42184621 -.00000039  00000+0  86446-4 0  9998
2 67241  50.0122 314.3128 0007586 342.9599  17.1044 13.90209467  2854
